ONEWEB-0291             
1 49081U 21075G   25147.33161237  .00000045  00000+0  83621-4 0  9994
2 49081  87.9059  82.6786 0002289  82.3776 277.7615 13.17650751183781
ONEWEB-0293             
1 49082U 21075H   25147.50879472  .00000003  00000+0 -25768-4 0  9994
2 49082  87.9064  82.6746 0002100  83.6339 276.5031 13.17650629183823
ONEWEB-0294             
1 49083U 21075J   25147.34064507 -.00000405  00000+0 -11602-2 0  9999
2 49083  87.8885  67.4060 0002343  89.8711 270.2686 13.12441203184958
ONEWEB-0295             
1 49084U 21075K   25147.58386555 -.00000022  00000+0 -90647-4 0  9999
2 49084  87.9080  82.6505 0002426  78.4869 281.6535 13.17651058183774
ONEWEB-0296             
1 49085U 21075L   25147.47366519  .00000144  00000+0  36359-3 0  9998
2 49085  87.8887  67.3874 0002623  80.7130 279.4295 13.12443346184979
ONEWEB-0297             
1 49086U 21075M   25147.50448734 -.00000303  00000+0 -87758-3 0  9991
2 49086  87.8895  67.4136 0002005  76.7497 283.3855 13.12444222185584
ONEWEB-0298             
1 49087U 21075N   25147.51229509  .00000017  00000+0  10887-4 0  9990
2 49087  87.9067  82.6717 0002084  74.6332 285.5030 13.17648162183821
ONEWEB-0299             
1 49088U 21075P   25147.51384502  .00000106  00000+0  24040-3 0  9990
2 49088  87.9060  82.6257 0002145  75.3232 284.8138 13.17649286183783
